OBJECT B                
1 51825U 22019B   25048.93937004  .00029403  00000+0  89018-3 0  9995
2 51825  97.3979 124.8810 0012415  91.5316 268.7349 15.34055507164745
